[{"OBJECT_NAME":"UWE-4","OBJECT_ID":"2018-111E","EPOCH":"2026-03-09T17:45:41.156352","MEAN_MOTION":15.39989264,"ECCENTRICITY":0.00075308,"INCLINATION":97.5841,"RA_OF_ASC_NODE":353.0294,"ARG_OF_PERICENTER":339.4687,"MEAN_ANOMALY":20.6255,"EPHEMERIS_TYPE":0,"CLASSIFICATION_TYPE":"U","NORAD_CAT_ID":43880,"ELEMENT_SET_NO":999,"REV_AT_EPOCH":39544,"BSTAR":0.00083385764,"MEAN_MOTION_DOT":0.00033304,"MEAN_MOTION_DDOT":0},{"OBJECT_NAME":"LEMUR-2-VALHALLA","OBJECT_ID":"2024-022B","EPOCH":"2026-03-09T12:58:09.060096","MEAN_MOTION":15.36522305,"ECCENTRICITY":0.00112289,"INCLINATION":97.4228,"RA_OF_ASC_NODE":277.4862,"ARG_OF_PERICENTER":109.8773,"MEAN_ANOMALY":250.3682,"EPHEMERIS_TYPE":0,"CLASSIFICATION_TYPE":"U","NORAD_CAT_ID":58900,"ELEMENT_SET_NO":999,"REV_AT_EPOCH":11695,"BSTAR":0.00053647225,"MEAN_MOTION_DOT":0.00019103,"MEAN_MOTION_DDOT":0}]
